GSAT0101 (PRN E11)      
1 37846U 11060A   21251.10334038 -.00000059  00000-0  00000+0 0  9993
2 37846  56.8811  29.0271 0001693  62.2653 297.7499  1.70475092 61530
GSAT0102 (PRN E12)      
1 37847U 11060B   21250.73534234 -.00000058  00000-0  00000-0 0  9992
2 37847  56.8814  29.0366 0001380 335.2267 205.2964  1.70475352 61402
GSAT0103 (PRN E19)      
1 38857U 12055A   21251.14439356  .00000015  00000-0  00000-0 0  9996
2 38857  55.0612 149.4642 0002656 268.5876  91.4538  1.70473743 55290
GSAT0104 (PRN E20)      
1 38858U 12055B   21250.52839247  .00000013  00000-0  00000-0 0  9999
2 38858  55.0610 149.4827 0000302 289.6704  70.3945  1.70474093 55280
GSAT0201 (PRN E18)      
1 40128U 14050A   21251.31227424 -.00000077  00000-0  00000-0 0  9996
2 40128  50.4387 343.5242 1642788 114.2709 263.7379  1.85518962 45985
GSAT0202 (PRN E14)      
1 40129U 14050B   21251.03532425 -.00000075  00000-0  00000-0 0  9994
2 40129  50.4684 342.5875 1639952 115.0690 262.8237  1.85519645 48147
GSAT0203 (PRN E26)      
1 40544U 15017A   21250.29856773 -.00000058  00000-0  00000-0 0  9992
2 40544  56.6751  29.1211 0002915 214.5831 145.3968  1.70474907 39474
GSAT0204 (PRN E22)      
1 40545U 15017B   21249.96465604 -.00000058  00000-0  00000-0 0  9994
2 40545  56.6805  29.1414 0003335 196.5191 163.4692  1.70475685  2519
GSAT0205 (PRN E24)      
1 40889U 15045A   21250.90546167  .00000046  00000-0  00000-0 0  9992
2 40889  55.8189 269.7648 0003735 338.3824  21.6483  1.70475204 37293
GSAT0206 (PRN E30)      
1 40890U 15045B   21251.12493591  .00000045  00000-0  00000+0 0  9999
2 40890  55.8163 269.7551 0002981 308.9408  51.0775  1.70475095 37326
GSAT0209 (PRN E09)      
1 41174U 15079A   21250.71394814  .00000014  00000-0  00000-0 0  9991
2 41174  55.0769 149.1773 0003771 325.2709  34.7745  1.70472741 35055
GSAT0208 (PRN E08)      
1 41175U 15079B   21250.93361929  .00000014  00000-0  00000-0 0  9997
2 41175  55.0748 149.1701 0003033 329.7657  30.2881  1.70472737 35479
GSAT0211 (PRN E02)      
1 41549U 16030A   21251.05355591  .00000046  00000-0  00000-0 0  9997
2 41549  55.9605 269.6602 0004802 297.4843  62.5122  1.70474907 32953
GSAT0210 (PRN E01)      
1 41550U 16030B   21251.34629571  .00000044  00000-0  00000-0 0  9991
2 41550  55.9604 269.6535 0004915 272.9361  87.0508  1.70474921 32953
GSAT0207 (PRN E07)      
1 41859U 16069A   21251.00650514  .00000014  00000-0  00000-0 0  9996
2 41859  54.7358 149.4209 0003574 308.8892  51.1499  1.70472859 29684
GSAT0212 (PRN E03)      
1 41860U 16069B   21250.85993712  .00000014  00000-0  00000-0 0  9990
2 41860  54.7339 149.4225 0002917 342.5982  17.4619  1.70472599 29936
GSAT0213 (PRN E04)      
1 41861U 16069C   21250.63892253  .00000013  00000-0  00000-0 0  9994
2 41861  54.7361 149.4334 0002832 280.9422  79.0946  1.70472808 29797
GSAT0214 (PRN E05)      
1 41862U 16069D   21250.78600336  .00000013  00000-0  00000-0 0  9990
2 41862  54.7336 149.4243 0002067 292.0725  67.9751  1.70472752 29922
GSAT0215 (PRN E21)      
1 43055U 17079A   21251.27634291  .00000045  00000-0  00000-0 0  9995
2 43055  55.9363 269.4906 0004348 268.2769  91.7166  1.70474084 23274
GSAT0216 (PRN E25)      
1 43056U 17079B   21250.98219677  .00000046  00000-0  00000-0 0  9991
2 43056  55.9368 269.4985 0006099 271.3871  88.5885  1.70474211 23286
GSAT0217 (PRN E27)      
1 43057U 17079C   21251.20234963  .00000045  00000-0  00000+0 0  9991
2 43057  55.9336 269.4927 0005540 280.6181  79.3634  1.70474176 23274
GSAT0218 (PRN E31)      
1 43058U 17079D   21250.83579016  .00000047  00000-0  00000+0 0  9993
2 43058  55.9358 269.5000 0006577 268.7426  91.2285  1.70474181 23262
GSAT0221 (PRN E15)      
1 43564U 18060A   21251.32101757 -.00000059  00000-0  00000-0 0  9999
2 43564  57.0598  28.8366 0002664 245.4443 114.5259  1.70475957 19456
GSAT0222 (PRN E33)      
1 43565U 18060B   21250.36769354 -.00000058  00000-0  00000-0 0  9995
2 43565  57.0612  28.8623 0002019 254.5463 105.4297  1.70475993 19481
GSAT0219 (PRN E36)      
1 43566U 18060C   21251.17485204 -.00000059  00000-0  00000-0 0  9996
2 43566  57.0625  28.8423 0001736 250.1396 109.8396  1.70475939 19473
GSAT0220 (PRN E13)      
1 43567U 18060D   21250.80815742 -.00000058  00000-0  00000-0 0  9999
2 43567  57.0626  28.8532 0002093 244.4933 115.4831  1.70475687 19451
